{
"type": "FeatureCollection",
"name": "industrial",
"crs": { "type": "name", "properties": { "name": "urn:ogc:def:crs:OGC:1.3:CRS84" } },
"features": [
{ "type": "Feature", "properties": { "element": "way", "id": 90989955, "landuse": "industrial", "name": null, "operator": null, "plant:method": null, "plant:output:electricity": null, "plant:source": null, "power": null, "ref": null, "start_date": null, "addr:district": null, "industrial": null, "name:en": null, "wikidata": null, "wikipedia": null, "source": null, "operator:wikidata": null, "description": null, "resource": null, "plant:type": null, "construction:power": null }, "geometry": { "type": "Polygon", "coordinates": [ [ [ 85.1591002, 20.910311 ], [ 85.1568282, 20.9156944 ], [ 85.1562936, 20.9176602 ], [ 85.1548694, 20.9207295 ], [ 85.1578617, 20.9212667 ], [ 85.1617091, 20.9271308 ], [ 85.1626554, 20.9273169 ], [ 85.1651954, 20.9202923 ], [ 85.1670382, 20.9195945 ], [ 85.1704249, 20.9103364 ], [ 85.1612609, 20.9074518 ], [ 85.1599567, 20.9105907 ], [ 85.1591002, 20.910311 ] ] ] } },
{ "type": "Feature", "properties": { "element": "way", "id": 90989995, "landuse": "industrial", "name": "NALCO", "operator": null, "plant:method": null, "plant:output:electricity": null, "plant:source": null, "power": null, "ref": null, "start_date": null, "addr:district": null, "industrial": null, "name:en": null, "wikidata": null, "wikipedia": null, "source": null, "operator:wikidata": null, "description": null, "resource": null, "plant:type": null, "construction:power": null }, "geometry": { "type": "Polygon", "coordinates": [ [ [ 85.170568, 20.8271711 ], [ 85.1704262, 20.8272288 ], [ 85.1702689, 20.8272547 ], [ 85.1702054, 20.8274506 ], [ 85.167347, 20.8295217 ], [ 85.1681281, 20.8304644 ], [ 85.1681205, 20.8305462 ], [ 85.1687429, 20.8312877 ], [ 85.1693775, 20.8318945 ], [ 85.1682653, 20.8326194 ], [ 85.1669335, 20.8335031 ], [ 85.1660038, 20.8338614 ], [ 85.1655978, 20.8339548 ], [ 85.1655392, 20.8337897 ], [ 85.1640357, 20.8340974 ], [ 85.1640819, 20.8342687 ], [ 85.1621335, 20.834704 ], [ 85.1605505, 20.8350142 ], [ 85.1592423, 20.8351727 ], [ 85.1585216, 20.8370643 ], [ 85.1576509, 20.8393556 ], [ 85.1576062, 20.8396135 ], [ 85.157932, 20.8395203 ], [ 85.1580543, 20.8398308 ], [ 85.1579965, 20.8398543 ], [ 85.1581311, 20.8401595 ], [ 85.15818, 20.8403899 ], [ 85.1575204, 20.840482 ], [ 85.157471, 20.8405137 ], [ 85.1575634, 20.8411515 ], [ 85.1554201, 20.8407074 ], [ 85.1554283, 20.837891 ], [ 85.1553523, 20.8365173 ], [ 85.1553964, 20.8360128 ], [ 85.1553123, 20.8360086 ], [ 85.1553622, 20.8355335 ], [ 85.1552367, 20.835514 ], [ 85.155097, 20.8353092 ], [ 85.1551503, 20.8346483 ], [ 85.1559651, 20.8334564 ], [ 85.1552163, 20.8326011 ], [ 85.1530923, 20.8334076 ], [ 85.151433, 20.8328493 ], [ 85.1475501, 20.8281966 ], [ 85.1451652, 20.8251035 ], [ 85.146138, 20.8251407 ], [ 85.1462928, 20.8251549 ], [ 85.1466784, 20.8252712 ], [ 85.1476651, 20.825661 ], [ 85.1480837, 20.8258254 ], [ 85.148172, 20.8258576 ], [ 85.1482604, 20.8258726 ], [ 85.1489534, 20.8256747 ], [ 85.1493707, 20.8255326 ], [ 85.1494531, 20.8255047 ], [ 85.1495251, 20.8254591 ], [ 85.1496658, 20.8253442 ], [ 85.1499919, 20.8250361 ], [ 85.1507073, 20.8241428 ], [ 85.152603, 20.8238092 ], [ 85.1538028, 20.8236807 ], [ 85.1544251, 20.8235682 ], [ 85.1551451, 20.8234339 ], [ 85.1561643, 20.823287 ], [ 85.1565851, 20.8232293 ], [ 85.1577186, 20.8225157 ], [ 85.1572181, 20.8224815 ], [ 85.1568873, 20.8221547 ], [ 85.1560445, 20.8223378 ], [ 85.15552, 20.8216147 ], [ 85.1554701, 20.8215011 ], [ 85.1553208, 20.8210795 ], [ 85.1550281, 20.8201356 ], [ 85.155211, 20.8199781 ], [ 85.1548721, 20.8192707 ], [ 85.1551916, 20.8191919 ], [ 85.1553054, 20.8192415 ], [ 85.1563714, 20.8186958 ], [ 85.1559159, 20.817945 ], [ 85.1558914, 20.8178403 ], [ 85.1558854, 20.8173099 ], [ 85.1559871, 20.8171426 ], [ 85.1560734, 20.8170809 ], [ 85.1574479, 20.8162227 ], [ 85.1576102, 20.8161823 ], [ 85.157801, 20.816172 ], [ 85.1581405, 20.8162084 ], [ 85.1584356, 20.816225 ], [ 85.1587433, 20.8161952 ], [ 85.1588645, 20.8161786 ], [ 85.1589817, 20.8161489 ], [ 85.1590254, 20.8161555 ], [ 85.1590603, 20.8162018 ], [ 85.1590277, 20.8163176 ], [ 85.1584655, 20.8171413 ], [ 85.1586053, 20.8172703 ], [ 85.1586228, 20.8173365 ], [ 85.158609, 20.8174291 ], [ 85.15831, 20.8178244 ], [ 85.1583729, 20.8182403 ], [ 85.1590135, 20.8187689 ], [ 85.1591024, 20.8187358 ], [ 85.1591452, 20.8187524 ], [ 85.1592966, 20.8192005 ], [ 85.1594537, 20.8191501 ], [ 85.1597906, 20.8192042 ], [ 85.1599024, 20.8191056 ], [ 85.1600503, 20.8191522 ], [ 85.1604393, 20.8200455 ], [ 85.1601171, 20.8201118 ], [ 85.1600515, 20.8201681 ], [ 85.1601957, 20.8203715 ], [ 85.1605332, 20.8207809 ], [ 85.1624457, 20.8197182 ], [ 85.1630055, 20.821103 ], [ 85.163097, 20.8211259 ], [ 85.1648917, 20.8205422 ], [ 85.1649565, 20.8205372 ], [ 85.1650086, 20.8205597 ], [ 85.1683582, 20.8250328 ], [ 85.1697189, 20.8240402 ], [ 85.170568, 20.8271711 ] ] ] } },
{ "type": "Feature", "properties": { "element": "way", "id": 90989998, "landuse": "industrial", "name": "Angul Smelter power station", "operator": "National Aluminum Co Ltd", "plant:method": "combustion", "plant:output:electricity": "1200 MW", "plant:source": "coal", "power": "plant", "ref": "https://www.gem.wiki/Angul_Smelter_power_station", "start_date": "1985", "addr:district": null, "industrial": null, "name:en": null, "wikidata": null, "wikipedia": null, "source": null, "operator:wikidata": null, "description": null, "resource": null, "plant:type": null, "construction:power": null }, "geometry": { "type": "Polygon", "coordinates": [ [ [ 85.1860202, 20.8631499 ], [ 85.1946487, 20.863553 ], [ 85.1943501, 20.8583431 ], [ 85.195943, 20.8565134 ], [ 85.2023481, 20.8551489 ], [ 85.2024476, 20.844046 ], [ 85.2006887, 20.8428054 ], [ 85.1912305, 20.8454417 ], [ 85.1851241, 20.8454727 ], [ 85.1851241, 20.8569786 ], [ 85.1862193, 20.8570406 ], [ 85.1860202, 20.8631499 ] ] ] } },
{ "type": "Feature", "properties": { "element": "way", "id": 151113257, "landuse": "industrial", "name": "Talcher Super Thermal Powerstation", "operator": "NTPC", "plant:method": "combustion", "plant:output:electricity": "3 GW", "plant:source": "coal", "power": "plant", "ref": null, "start_date": null, "addr:district": null, "industrial": null, "name:en": null, "wikidata": "Q7679080", "wikipedia": null, "source": null, "operator:wikidata": "Q1967805", "description": null, "resource": null, "plant:type": null, "construction:power": null }, "geometry": { "type": "Polygon", "coordinates": [ [ [ 85.069009, 21.0866511 ], [ 85.0683414, 21.0875267 ], [ 85.0677736, 21.0896585 ], [ 85.0675553, 21.0896286 ], [ 85.0675664, 21.0899113 ], [ 85.0676278, 21.0905652 ], [ 85.0677728, 21.0914516 ], [ 85.0674263, 21.0919779 ], [ 85.066228, 21.092222 ], [ 85.066074, 21.0916357 ], [ 85.0642498, 21.0919494 ], [ 85.0643879, 21.0925921 ], [ 85.0645454, 21.0933249 ], [ 85.0648131, 21.0935677 ], [ 85.0646179, 21.0937169 ], [ 85.0649358, 21.0952589 ], [ 85.0651738, 21.0963967 ], [ 85.0651998, 21.096395 ], [ 85.0652109, 21.0965788 ], [ 85.0652853, 21.0965667 ], [ 85.0654638, 21.0974634 ], [ 85.0653783, 21.097479 ], [ 85.0657241, 21.0990539 ], [ 85.0660141, 21.1004658 ], [ 85.0661665, 21.1012324 ], [ 85.066239, 21.1012723 ], [ 85.0668804, 21.1011336 ], [ 85.0674084, 21.1010191 ], [ 85.0672913, 21.1006479 ], [ 85.0677486, 21.1006965 ], [ 85.0677709, 21.1006514 ], [ 85.0681223, 21.1006496 ], [ 85.0680777, 21.1010295 ], [ 85.068838, 21.1010711 ], [ 85.0688827, 21.1003825 ], [ 85.0694832, 21.1003964 ], [ 85.0697713, 21.1003825 ], [ 85.0700334, 21.1003513 ], [ 85.0701171, 21.10053 ], [ 85.0702584, 21.1005039 ], [ 85.0703179, 21.1007277 ], [ 85.0706544, 21.1006895 ], [ 85.0707697, 21.1011717 ], [ 85.0711954, 21.1010833 ], [ 85.0716546, 21.1027275 ], [ 85.0720357, 21.1040509 ], [ 85.0721491, 21.1044185 ], [ 85.0722904, 21.1050811 ], [ 85.0724763, 21.1057904 ], [ 85.0723424, 21.1060784 ], [ 85.0719743, 21.1062518 ], [ 85.0721547, 21.1065605 ], [ 85.0717643, 21.1066732 ], [ 85.0719465, 21.1071172 ], [ 85.0730489, 21.1067756 ], [ 85.0750437, 21.1061616 ], [ 85.0769772, 21.1055632 ], [ 85.0769605, 21.1051609 ], [ 85.0777227, 21.1049753 ], [ 85.0777338, 21.1050568 ], [ 85.0786764, 21.1048955 ], [ 85.0786243, 21.1046492 ], [ 85.0787837, 21.104247 ], [ 85.0788046, 21.1041942 ], [ 85.0788795, 21.1040052 ], [ 85.0786026, 21.1028503 ], [ 85.0821283, 21.1021954 ], [ 85.0829591, 21.1020482 ], [ 85.0828723, 21.1016901 ], [ 85.0828933, 21.1008954 ], [ 85.0829144, 21.1004539 ], [ 85.0834586, 21.0995046 ], [ 85.0836663, 21.0991146 ], [ 85.0841659, 21.0972553 ], [ 85.084108, 21.0960411 ], [ 85.0839476, 21.0951335 ], [ 85.0833929, 21.0925579 ], [ 85.0820836, 21.0914147 ], [ 85.0817129, 21.0896461 ], [ 85.0812974, 21.0876984 ], [ 85.0808768, 21.0856966 ], [ 85.0799224, 21.0817495 ], [ 85.0793598, 21.0818452 ], [ 85.0785, 21.082088 ], [ 85.0781871, 21.0822082 ], [ 85.0769094, 21.0830325 ], [ 85.0769041, 21.0830963 ], [ 85.0766228, 21.0832656 ], [ 85.076613, 21.0834044 ], [ 85.0765646, 21.0834408 ], [ 85.0765119, 21.0855615 ], [ 85.0765093, 21.0867071 ], [ 85.0764095, 21.0867058 ], [ 85.0762918, 21.0867042 ], [ 85.0746479, 21.0866826 ], [ 85.0731013, 21.0866576 ], [ 85.0731199, 21.0864286 ], [ 85.0728057, 21.086413 ], [ 85.0725548, 21.0864391 ], [ 85.0725436, 21.0863887 ], [ 85.0716271, 21.0863835 ], [ 85.0713817, 21.08591 ], [ 85.0705228, 21.0862153 ], [ 85.0702048, 21.0856325 ], [ 85.0695635, 21.0860904 ], [ 85.0693088, 21.0863124 ], [ 85.069009, 21.0866511 ] ] ] } },
{ "type": "Feature", "properties": { "element": "way", "id": 151113257, "landuse": "industrial", "name": "Talcher Super Thermal Powerstation", "operator": "NTPC", "plant:method": "combustion", "plant:output:electricity": "3 GW", "plant:source": "coal", "power": "plant", "ref": null, "start_date": null, "addr:district": null, "industrial": null, "name:en": null, "wikidata": "Q7679080", "wikipedia": null, "source": null, "operator:wikidata": "Q1967805", "description": null, "resource": null, "plant:type": null, "construction:power": null }, "geometry": { "type": "Polygon", "coordinates": [ [ [ 85.069009, 21.0866511 ], [ 85.0683414, 21.0875267 ], [ 85.0677736, 21.0896585 ], [ 85.0675553, 21.0896286 ], [ 85.0675664, 21.0899113 ], [ 85.0676278, 21.0905652 ], [ 85.0677728, 21.0914516 ], [ 85.0674263, 21.0919779 ], [ 85.066228, 21.092222 ], [ 85.066074, 21.0916357 ], [ 85.0642498, 21.0919494 ], [ 85.0643879, 21.0925921 ], [ 85.0645454, 21.0933249 ], [ 85.0648131, 21.0935677 ], [ 85.0646179, 21.0937169 ], [ 85.0649358, 21.0952589 ], [ 85.0651738, 21.0963967 ], [ 85.0651998, 21.096395 ], [ 85.0652109, 21.0965788 ], [ 85.0652853, 21.0965667 ], [ 85.0654638, 21.0974634 ], [ 85.0653783, 21.097479 ], [ 85.0657241, 21.0990539 ], [ 85.0660141, 21.1004658 ], [ 85.0661665, 21.1012324 ], [ 85.066239, 21.1012723 ], [ 85.0668804, 21.1011336 ], [ 85.0674084, 21.1010191 ], [ 85.0672913, 21.1006479 ], [ 85.0677486, 21.1006965 ], [ 85.0677709, 21.1006514 ], [ 85.0681223, 21.1006496 ], [ 85.0680777, 21.1010295 ], [ 85.068838, 21.1010711 ], [ 85.0688827, 21.1003825 ], [ 85.0694832, 21.1003964 ], [ 85.0697713, 21.1003825 ], [ 85.0700334, 21.1003513 ], [ 85.0701171, 21.10053 ], [ 85.0702584, 21.1005039 ], [ 85.0703179, 21.1007277 ], [ 85.0706544, 21.1006895 ], [ 85.0707697, 21.1011717 ], [ 85.0711954, 21.1010833 ], [ 85.0716546, 21.1027275 ], [ 85.0720357, 21.1040509 ], [ 85.0721491, 21.1044185 ], [ 85.0722904, 21.1050811 ], [ 85.0724763, 21.1057904 ], [ 85.0723424, 21.1060784 ], [ 85.0719743, 21.1062518 ], [ 85.0721547, 21.1065605 ], [ 85.0717643, 21.1066732 ], [ 85.0719465, 21.1071172 ], [ 85.0730489, 21.1067756 ], [ 85.0750437, 21.1061616 ], [ 85.0769772, 21.1055632 ], [ 85.0769605, 21.1051609 ], [ 85.0777227, 21.1049753 ], [ 85.0777338, 21.1050568 ], [ 85.0786764, 21.1048955 ], [ 85.0786243, 21.1046492 ], [ 85.0787837, 21.104247 ], [ 85.0788046, 21.1041942 ], [ 85.0788795, 21.1040052 ], [ 85.0786026, 21.1028503 ], [ 85.0821283, 21.1021954 ], [ 85.0829591, 21.1020482 ], [ 85.0828723, 21.1016901 ], [ 85.0828933, 21.1008954 ], [ 85.0829144, 21.1004539 ], [ 85.0834586, 21.0995046 ], [ 85.0836663, 21.0991146 ], [ 85.0841659, 21.0972553 ], [ 85.084108, 21.0960411 ], [ 85.0839476, 21.0951335 ], [ 85.0833929, 21.0925579 ], [ 85.0820836, 21.0914147 ], [ 85.0817129, 21.0896461 ], [ 85.0812974, 21.0876984 ], [ 85.0808768, 21.0856966 ], [ 85.0799224, 21.0817495 ], [ 85.0793598, 21.0818452 ], [ 85.0785, 21.082088 ], [ 85.0781871, 21.0822082 ], [ 85.0769094, 21.0830325 ], [ 85.0769041, 21.0830963 ], [ 85.0766228, 21.0832656 ], [ 85.076613, 21.0834044 ], [ 85.0765646, 21.0834408 ], [ 85.0765119, 21.0855615 ], [ 85.0765093, 21.0867071 ], [ 85.0764095, 21.0867058 ], [ 85.0762918, 21.0867042 ], [ 85.0746479, 21.0866826 ], [ 85.0731013, 21.0866576 ], [ 85.0731199, 21.0864286 ], [ 85.0728057, 21.086413 ], [ 85.0725548, 21.0864391 ], [ 85.0725436, 21.0863887 ], [ 85.0716271, 21.0863835 ], [ 85.0713817, 21.08591 ], [ 85.0705228, 21.0862153 ], [ 85.0702048, 21.0856325 ], [ 85.0695635, 21.0860904 ], [ 85.0693088, 21.0863124 ], [ 85.069009, 21.0866511 ] ] ] } },
{ "type": "Feature", "properties": { "element": "way", "id": 177572836, "landuse": "industrial", "name": "Tata Steel Meramandali", "operator": null, "plant:method": null, "plant:output:electricity": null, "plant:source": null, "power": null, "ref": null, "start_date": null, "addr:district": "Dhenkanal", "industrial": "metal_processing", "name:en": "Tata Steel Meramandali", "wikidata": "Q963101", "wikipedia": "en:Tata Steel", "source": null, "operator:wikidata": null, "description": null, "resource": null, "plant:type": null, "construction:power": null }, "geometry": { "type": "Polygon", "coordinates": [ [ [ 85.2568403, 20.8263302 ], [ 85.2548719, 20.8159154 ], [ 85.2517084, 20.8138127 ], [ 85.250197, 20.8025098 ], [ 85.2509145, 20.7822885 ], [ 85.2571779, 20.7815449 ], [ 85.2723392, 20.7843799 ], [ 85.2679648, 20.7972063 ], [ 85.2638743, 20.8083491 ], [ 85.2614739, 20.8115439 ], [ 85.2610184, 20.8120209 ], [ 85.2610184, 20.8146165 ], [ 85.2631342, 20.8195353 ], [ 85.2584366, 20.8203252 ], [ 85.2579147, 20.8236938 ], [ 85.2585609, 20.8264815 ], [ 85.2568403, 20.8263302 ] ] ] } },
{ "type": "Feature", "properties": { "element": "way", "id": 177572837, "landuse": "industrial", "name": null, "operator": null, "plant:method": null, "plant:output:electricity": null, "plant:source": null, "power": null, "ref": null, "start_date": null, "addr:district": null, "industrial": null, "name:en": null, "wikidata": null, "wikipedia": null, "source": null, "operator:wikidata": null, "description": null, "resource": null, "plant:type": null, "construction:power": null }, "geometry": { "type": "Polygon", "coordinates": [ [ [ 85.2670856, 20.824031 ], [ 85.2703786, 20.8227467 ], [ 85.2729094, 20.8297116 ], [ 85.2702236, 20.8309392 ], [ 85.2670856, 20.824031 ] ] ] } },
{ "type": "Feature", "properties": { "element": "way", "id": 177572839, "landuse": "industrial", "name": null, "operator": null, "plant:method": null, "plant:output:electricity": null, "plant:source": null, "power": null, "ref": null, "start_date": null, "addr:district": null, "industrial": null, "name:en": null, "wikidata": null, "wikipedia": null, "source": null, "operator:wikidata": null, "description": null, "resource": null, "plant:type": null, "construction:power": null }, "geometry": { "type": "Polygon", "coordinates": [ [ [ 85.2780764, 20.819757 ], [ 85.2797929, 20.8253255 ], [ 85.282284, 20.8253725 ], [ 85.2873937, 20.820108 ], [ 85.2854579, 20.8167015 ], [ 85.2780764, 20.819757 ] ] ] } },
{ "type": "Feature", "properties": { "element": "way", "id": 177572840, "landuse": "industrial", "name": null, "operator": null, "plant:method": "combustion", "plant:output:electricity": "95 MW", "plant:source": "coal", "power": "plant", "ref": null, "start_date": null, "addr:district": null, "industrial": null, "name:en": "NBVL Kharagprasad Power Plant", "wikidata": null, "wikipedia": null, "source": "https://www.gem.wiki/Kharagprasad_power_station", "operator:wikidata": null, "description": null, "resource": null, "plant:type": null, "construction:power": null }, "geometry": { "type": "Polygon", "coordinates": [ [ [ 85.2852821, 20.8158473 ], [ 85.2830677, 20.8083889 ], [ 85.29066, 20.8048074 ], [ 85.2921715, 20.8019159 ], [ 85.2983578, 20.7994844 ], [ 85.2993069, 20.8044131 ], [ 85.2939289, 20.8065489 ], [ 85.2951943, 20.8115103 ], [ 85.2945968, 20.8122331 ], [ 85.2852821, 20.8158473 ] ] ] } },
{ "type": "Feature", "properties": { "element": "way", "id": 230335221, "landuse": "industrial", "name": "Angul Monnet Power Company Limited", "operator": null, "plant:method": "combustion", "plant:output:electricity": "1050 MW", "plant:source": "coal", "power": null, "ref": null, "start_date": null, "addr:district": null, "industrial": null, "name:en": null, "wikidata": "Q24949078", "wikipedia": "en:MPCL Thermal Power Station", "source": null, "operator:wikidata": null, "description": null, "resource": null, "plant:type": null, "construction:power": "plant" }, "geometry": { "type": "Polygon", "coordinates": [ [ [ 84.9918169, 20.9188135 ], [ 84.9886299, 20.9186776 ], [ 84.985595, 20.9187085 ], [ 84.9819981, 20.9195546 ], [ 84.9793996, 20.9201105 ], [ 84.9795583, 20.9207157 ], [ 84.9799749, 20.9213518 ], [ 84.9804509, 20.9216853 ], [ 84.9814758, 20.9218706 ], [ 84.9832808, 20.92255 ], [ 84.9854628, 20.9232046 ], [ 84.9859322, 20.9245942 ], [ 84.9868579, 20.9263235 ], [ 84.9869505, 20.9272622 ], [ 84.9871687, 20.9327647 ], [ 84.9875059, 20.9327586 ], [ 84.9880811, 20.9323448 ], [ 84.9903093, 20.9317766 ], [ 84.9911358, 20.9315852 ], [ 84.9924648, 20.9311467 ], [ 84.9948848, 20.9307391 ], [ 84.9964783, 20.9302574 ], [ 84.9973643, 20.9298066 ], [ 84.9989842, 20.9282565 ], [ 84.9995066, 20.9275895 ], [ 84.999533, 20.9272869 ], [ 84.9993479, 20.9270213 ], [ 84.9986867, 20.9267187 ], [ 84.9979991, 20.9258109 ], [ 84.9970932, 20.9244831 ], [ 84.9973577, 20.9236617 ], [ 84.9978999, 20.9234949 ], [ 84.9980718, 20.9232417 ], [ 84.997966, 20.9225191 ], [ 84.998614, 20.9213704 ], [ 84.9995661, 20.9198634 ], [ 84.9997777, 20.9195237 ], [ 84.9999297, 20.9183811 ], [ 84.9999364, 20.9179797 ], [ 84.9997248, 20.9179179 ], [ 84.9970535, 20.9174238 ], [ 84.9956452, 20.9173435 ], [ 84.9940782, 20.9174918 ], [ 84.9924186, 20.9177079 ], [ 84.9919094, 20.9178747 ], [ 84.9918169, 20.9188135 ] ] ] } },
{ "type": "Feature", "properties": { "element": "way", "id": 231258311, "landuse": "industrial", "name": "Talcher Thermal Power Station", "operator": "NTPC", "plant:method": "combustion", "plant:output:electricity": "460 MW", "plant:source": "coal", "power": "plant", "ref": null, "start_date": null, "addr:district": null, "industrial": null, "name:en": null, "wikidata": "Q7679081", "wikipedia": null, "source": null, "operator:wikidata": "Q1967805", "description": null, "resource": null, "plant:type": null, "construction:power": null }, "geometry": { "type": "Polygon", "coordinates": [ [ [ 85.2095646, 20.9081657 ], [ 85.2115759, 20.9126508 ], [ 85.2121264, 20.9127361 ], [ 85.2121345, 20.9128439 ], [ 85.2123359, 20.9130973 ], [ 85.2117666, 20.9137319 ], [ 85.2113584, 20.9141031 ], [ 85.2113369, 20.9143866 ], [ 85.2104266, 20.9157486 ], [ 85.2096747, 20.9171006 ], [ 85.2091054, 20.9180563 ], [ 85.2077547, 20.9167169 ], [ 85.2072069, 20.9162829 ], [ 85.2072579, 20.915711 ], [ 85.2067558, 20.9148331 ], [ 85.2065947, 20.914369 ], [ 85.2055689, 20.9132503 ], [ 85.205354, 20.9128013 ], [ 85.2052359, 20.9122971 ], [ 85.2045995, 20.9114718 ], [ 85.2041967, 20.9105813 ], [ 85.2041, 20.91019 ], [ 85.2073465, 20.909001 ], [ 85.2095646, 20.9081657 ] ] ] } },
{ "type": "Feature", "properties": { "element": "way", "id": 396925738, "landuse": "industrial", "name": "Meramandali Power Station", "operator": "Tata Steel BSL Limited (Bhushan Steel Limited)", "plant:method": "combustion", "plant:output:electricity": "yes", "plant:source": "coal", "power": "plant", "ref": null, "start_date": null, "addr:district": null, "industrial": null, "name:en": null, "wikidata": null, "wikipedia": null, "source": "https://www.gem.wiki/Meramandali_power_station#Background_on_Plant", "operator:wikidata": null, "description": null, "resource": null, "plant:type": null, "construction:power": null }, "geometry": { "type": "Polygon", "coordinates": [ [ [ 85.2517984, 20.8071068 ], [ 85.2515859, 20.8062547 ], [ 85.2513677, 20.8047856 ], [ 85.2511496, 20.8029062 ], [ 85.2560655, 20.8042184 ], [ 85.2543598, 20.8103716 ], [ 85.2526484, 20.8102069 ], [ 85.2517984, 20.8071068 ] ] ] } },
{ "type": "Feature", "properties": { "element": "way", "id": 396925739, "landuse": "industrial", "name": "Kamalanga Thermal Power Plant", "operator": "GMR Energy", "plant:method": "combustion", "plant:output:electricity": "1050 MW", "plant:source": "coal", "power": "plant", "ref": null, "start_date": null, "addr:district": null, "industrial": null, "name:en": null, "wikidata": "Q11979976", "wikipedia": "en:Kamalanga Thermal Power Plant", "source": null, "operator:wikidata": null, "description": null, "resource": null, "plant:type": null, "construction:power": null }, "geometry": { "type": "Polygon", "coordinates": [ [ [ 85.2570376, 20.8741013 ], [ 85.2573648, 20.8744422 ], [ 85.2575791, 20.8748156 ], [ 85.2579469, 20.8753947 ], [ 85.2584537, 20.8760252 ], [ 85.2587115, 20.8761253 ], [ 85.2599328, 20.8758313 ], [ 85.2607626, 20.8755188 ], [ 85.2616217, 20.8754812 ], [ 85.2620962, 20.8753366 ], [ 85.2625235, 20.8752517 ], [ 85.2629455, 20.875281 ], [ 85.2644312, 20.8752865 ], [ 85.2645123, 20.875346 ], [ 85.2665523, 20.8754975 ], [ 85.2667712, 20.8755138 ], [ 85.2671941, 20.8755896 ], [ 85.2679528, 20.8756437 ], [ 85.2683814, 20.8757194 ], [ 85.268923, 20.8757573 ], [ 85.2694066, 20.8757411 ], [ 85.2695862, 20.8757194 ], [ 85.2696702, 20.8751539 ], [ 85.2700988, 20.8741364 ], [ 85.2705709, 20.8733111 ], [ 85.2706201, 20.8725643 ], [ 85.2713962, 20.8722449 ], [ 85.2725576, 20.8721124 ], [ 85.2730065, 20.8719879 ], [ 85.2731078, 20.8718553 ], [ 85.2729717, 20.8707783 ], [ 85.272992, 20.8704481 ], [ 85.2731976, 20.8698258 ], [ 85.2733772, 20.8695308 ], [ 85.273687, 20.8691925 ], [ 85.2742547, 20.8674011 ], [ 85.2742054, 20.8665324 ], [ 85.2743126, 20.8660832 ], [ 85.274495, 20.8652173 ], [ 85.2744516, 20.8651956 ], [ 85.2745892, 20.864013 ], [ 85.2741692, 20.8633338 ], [ 85.2715268, 20.8592941 ], [ 85.2707419, 20.8580438 ], [ 85.2699165, 20.8568233 ], [ 85.269291, 20.8558679 ], [ 85.2679791, 20.8558057 ], [ 85.2673333, 20.8551697 ], [ 85.2672029, 20.8548801 ], [ 85.2670871, 20.8543524 ], [ 85.2658736, 20.854347 ], [ 85.2659953, 20.8551481 ], [ 85.2656825, 20.8552157 ], [ 85.2656535, 20.855849 ], [ 85.2649324, 20.855941 ], [ 85.2632527, 20.855711 ], [ 85.2615498, 20.8553862 ], [ 85.2599888, 20.8566203 ], [ 85.2586451, 20.8576893 ], [ 85.2562616, 20.8593753 ], [ 85.2564412, 20.8612724 ], [ 85.2560589, 20.8620111 ], [ 85.2560907, 20.8628338 ], [ 85.257756, 20.8638811 ], [ 85.2581325, 20.8641707 ], [ 85.2575272, 20.8644711 ], [ 85.2570146, 20.8645333 ], [ 85.256751, 20.86472 ], [ 85.2563861, 20.8647633 ], [ 85.2564846, 20.8651747 ], [ 85.2564904, 20.8667902 ], [ 85.2566555, 20.8682353 ], [ 85.2570522, 20.8695829 ], [ 85.2569682, 20.8699645 ], [ 85.2570986, 20.8708088 ], [ 85.2571507, 20.8720211 ], [ 85.257058, 20.8723918 ], [ 85.2570812, 20.8732388 ], [ 85.2570376, 20.8741013 ] ] ] } },
{ "type": "Feature", "properties": { "element": "way", "id": 660307102, "landuse": "industrial", "name": null, "operator": null, "plant:method": null, "plant:output:electricity": null, "plant:source": null, "power": null, "ref": null, "start_date": null, "addr:district": null, "industrial": null, "name:en": null, "wikidata": null, "wikipedia": null, "source": null, "operator:wikidata": null, "description": null, "resource": null, "plant:type": null, "construction:power": null }, "geometry": { "type": "Polygon", "coordinates": [ [ [ 84.9822409, 20.8995502 ], [ 84.9761045, 20.8994754 ], [ 84.9761689, 20.8967492 ], [ 84.9763191, 20.8965888 ], [ 84.976244, 20.8960977 ], [ 84.976995, 20.8958972 ], [ 84.9769682, 20.8953409 ], [ 84.9776226, 20.8948398 ], [ 84.9785668, 20.8944539 ], [ 84.9787974, 20.8948448 ], [ 84.9804282, 20.8941331 ], [ 84.9807286, 20.8943436 ], [ 84.9810183, 20.8942784 ], [ 84.9817591, 20.8935004 ], [ 84.9817672, 20.8937492 ], [ 84.982275, 20.8937591 ], [ 84.9822409, 20.8995502 ] ] ] } },
{ "type": "Feature", "properties": { "element": "way", "id": 660307102, "landuse": "industrial", "name": null, "operator": null, "plant:method": null, "plant:output:electricity": null, "plant:source": null, "power": null, "ref": null, "start_date": null, "addr:district": null, "industrial": null, "name:en": null, "wikidata": null, "wikipedia": null, "source": null, "operator:wikidata": null, "description": null, "resource": null, "plant:type": null, "construction:power": null }, "geometry": { "type": "Polygon", "coordinates": [ [ [ 84.9822409, 20.8995502 ], [ 84.9761045, 20.8994754 ], [ 84.9761689, 20.8967492 ], [ 84.9763191, 20.8965888 ], [ 84.976244, 20.8960977 ], [ 84.976995, 20.8958972 ], [ 84.9769682, 20.8953409 ], [ 84.9776226, 20.8948398 ], [ 84.9785668, 20.8944539 ], [ 84.9787974, 20.8948448 ], [ 84.9804282, 20.8941331 ], [ 84.9807286, 20.8943436 ], [ 84.9810183, 20.8942784 ], [ 84.9817591, 20.8935004 ], [ 84.9817672, 20.8937492 ], [ 84.982275, 20.8937591 ], [ 84.9822409, 20.8995502 ] ] ] } },
{ "type": "Feature", "properties": { "element": "way", "id": 660307106, "landuse": "industrial", "name": "Angul Steel Plant", "operator": null, "plant:method": null, "plant:output:electricity": null, "plant:source": null, "power": null, "ref": null, "start_date": null, "addr:district": null, "industrial": null, "name:en": null, "wikidata": null, "wikipedia": null, "source": null, "operator:wikidata": null, "description": null, "resource": null, "plant:type": null, "construction:power": null }, "geometry": { "type": "Polygon", "coordinates": [ [ [ 84.989604, 20.8629254 ], [ 84.9891937, 20.8630325 ], [ 84.9893707, 20.8637945 ], [ 84.9879759, 20.8640251 ], [ 84.988035, 20.863223 ], [ 84.9861413, 20.8628721 ], [ 84.9856424, 20.862817 ], [ 84.9863237, 20.8645514 ], [ 84.9874288, 20.8690025 ], [ 84.9889469, 20.8701955 ], [ 84.9897999, 20.871203 ], [ 84.9911624, 20.872416 ], [ 84.9921977, 20.8728621 ], [ 84.9917471, 20.8737343 ], [ 84.9905992, 20.8754385 ], [ 84.9897569, 20.8769872 ], [ 84.9888825, 20.877694 ], [ 84.9869943, 20.8780298 ], [ 84.983333, 20.8780749 ], [ 84.9816325, 20.8779997 ], [ 84.9813348, 20.8796487 ], [ 84.9806213, 20.881012 ], [ 84.9798703, 20.8824655 ], [ 84.972387, 20.8861543 ], [ 84.9741465, 20.8880639 ], [ 84.975273, 20.8891364 ], [ 84.9763298, 20.8892016 ], [ 84.9780357, 20.8889359 ], [ 84.9817586, 20.8889159 ], [ 84.9820446, 20.8880757 ], [ 84.9961127, 20.8882854 ], [ 84.9971223, 20.8882794 ], [ 84.9973637, 20.8802401 ], [ 84.9984097, 20.8802702 ], [ 84.999091, 20.8800447 ], [ 85.0003517, 20.8778093 ], [ 85.0019395, 20.8753232 ], [ 85.0020897, 20.8743307 ], [ 85.0007915, 20.8689474 ], [ 85.0000727, 20.8638947 ], [ 84.9995685, 20.8630727 ], [ 84.9985278, 20.8627318 ], [ 84.9969077, 20.8622907 ], [ 84.9953949, 20.8623007 ], [ 84.994483, 20.8615287 ], [ 84.9915647, 20.8621303 ], [ 84.9897516, 20.8619899 ], [ 84.989604, 20.8629254 ] ] ] } },
{ "type": "Feature", "properties": { "element": "way", "id": 835422583, "landuse": "industrial", "name": null, "operator": null, "plant:method": null, "plant:output:electricity": null, "plant:source": null, "power": null, "ref": null, "start_date": null, "addr:district": null, "industrial": null, "name:en": null, "wikidata": null, "wikipedia": null, "source": null, "operator:wikidata": null, "description": null, "resource": null, "plant:type": null, "construction:power": null }, "geometry": { "type": "Polygon", "coordinates": [ [ [ 85.2725422, 20.9835696 ], [ 85.2737546, 20.9856031 ], [ 85.273143, 20.9859837 ], [ 85.2736151, 20.986725 ], [ 85.2758038, 20.9858234 ], [ 85.2774346, 20.985543 ], [ 85.2788186, 20.9855229 ], [ 85.2777672, 20.98381 ], [ 85.2765655, 20.9834794 ], [ 85.275675, 20.982077 ], [ 85.2756965, 20.9813257 ], [ 85.2748489, 20.981546 ], [ 85.2740765, 20.9823775 ], [ 85.2737117, 20.9829485 ], [ 85.2725422, 20.9835696 ] ] ] } },
{ "type": "Feature", "properties": { "element": "way", "id": 928075487, "landuse": "industrial", "name": null, "operator": null, "plant:method": null, "plant:output:electricity": null, "plant:source": null, "power": null, "ref": null, "start_date": null, "addr:district": null, "industrial": null, "name:en": null, "wikidata": null, "wikipedia": null, "source": null, "operator:wikidata": null, "description": null, "resource": null, "plant:type": null, "construction:power": null }, "geometry": { "type": "Polygon", "coordinates": [ [ [ 85.2083945, 20.9590451 ], [ 85.2089938, 20.9608561 ], [ 85.2130386, 20.9596889 ], [ 85.2124393, 20.9578779 ], [ 85.2083945, 20.9590451 ] ] ] } },
{ "type": "Feature", "properties": { "element": "way", "id": 928075503, "landuse": "industrial", "name": null, "operator": null, "plant:method": null, "plant:output:electricity": null, "plant:source": null, "power": null, "ref": null, "start_date": null, "addr:district": null, "industrial": null, "name:en": null, "wikidata": null, "wikipedia": null, "source": null, "operator:wikidata": null, "description": null, "resource": null, "plant:type": null, "construction:power": null }, "geometry": { "type": "Polygon", "coordinates": [ [ [ 85.1033807, 20.9145442 ], [ 85.1082945, 20.9108661 ], [ 85.1085305, 20.9109864 ], [ 85.1069856, 20.9139529 ], [ 85.104593, 20.9158972 ], [ 85.1036167, 20.9161477 ], [ 85.1033807, 20.9145442 ] ] ] } },
{ "type": "Feature", "properties": { "element": "way", "id": 986314149, "landuse": "industrial", "name": "Nandira", "operator": "MCL", "plant:method": null, "plant:output:electricity": null, "plant:source": null, "power": null, "ref": null, "start_date": null, "addr:district": null, "industrial": "mine", "name:en": null, "wikidata": null, "wikipedia": null, "source": null, "operator:wikidata": null, "description": "underground mine", "resource": "coal", "plant:type": null, "construction:power": null }, "geometry": { "type": "Polygon", "coordinates": [ [ [ 85.123288, 20.9283087 ], [ 85.1230184, 20.9280544 ], [ 85.1227516, 20.9278027 ], [ 85.1228535, 20.9274369 ], [ 85.1238942, 20.9264448 ], [ 85.1245433, 20.9259037 ], [ 85.1257342, 20.927026 ], [ 85.1262277, 20.9275421 ], [ 85.1242483, 20.9290052 ], [ 85.123288, 20.9283087 ] ] ] } },
{ "type": "Feature", "properties": { "element": "way", "id": 989333273, "landuse": "industrial", "name": "Solar plant NTPC kaniha", "operator": null, "plant:method": "photovoltaic", "plant:output:electricity": "10 MW", "plant:source": "solar", "power": "plant", "ref": null, "start_date": null, "addr:district": null, "industrial": null, "name:en": null, "wikidata": null, "wikipedia": null, "source": null, "operator:wikidata": null, "description": "105040", "resource": null, "plant:type": "solar_photovoltaic_panel", "construction:power": null }, "geometry": { "type": "Polygon", "coordinates": [ [ [ 85.094339, 21.0867099 ], [ 85.0941257, 21.0859091 ], [ 85.0942169, 21.0858165 ], [ 85.0943188, 21.0857864 ], [ 85.0957887, 21.0856713 ], [ 85.0958262, 21.085341 ], [ 85.0977574, 21.0852309 ], [ 85.099584, 21.0852083 ], [ 85.099588, 21.0859141 ], [ 85.0996993, 21.0859691 ], [ 85.099863, 21.0894002 ], [ 85.0988102, 21.0896579 ], [ 85.0975496, 21.0895754 ], [ 85.0975549, 21.0890098 ], [ 85.0984213, 21.0871203 ], [ 85.0982966, 21.0869739 ], [ 85.0967865, 21.0863908 ], [ 85.094339, 21.0867099 ] ] ] } },
{ "type": "Feature", "properties": { "element": "way", "id": 1007115341, "landuse": "industrial", "name": null, "operator": null, "plant:method": "photovoltaic", "plant:output:electricity": "yes", "plant:source": "solar", "power": "plant", "ref": null, "start_date": null, "addr:district": null, "industrial": null, "name:en": null, "wikidata": null, "wikipedia": null, "source": null, "operator:wikidata": null, "description": "23970", "resource": null, "plant:type": "solar_photovoltaic_panel", "construction:power": null }, "geometry": { "type": "Polygon", "coordinates": [ [ [ 85.0659505, 21.0898106 ], [ 85.0662804, 21.0906164 ], [ 85.0661328, 21.0906439 ], [ 85.0662884, 21.0912445 ], [ 85.0663957, 21.0912495 ], [ 85.0663823, 21.0915849 ], [ 85.066165, 21.0916049 ], [ 85.0662535, 21.092183 ], [ 85.066511, 21.0920904 ], [ 85.0671977, 21.0920078 ], [ 85.0673988, 21.0919177 ], [ 85.0676778, 21.0914698 ], [ 85.0673237, 21.0896629 ], [ 85.0665674, 21.089708 ], [ 85.0659505, 21.0898106 ] ] ] } },
{ "type": "Feature", "properties": { "element": "way", "id": 1012595669, "landuse": "industrial", "name": "Angul Steel Power Plant", "operator": null, "plant:method": "combustion", "plant:output:electricity": "yes", "plant:source": "coal", "power": "plant", "ref": null, "start_date": null, "addr:district": null, "industrial": null, "name:en": null, "wikidata": null, "wikipedia": null, "source": "https://www.gem.wiki/Angul_Steel_power_station", "operator:wikidata": null, "description": null, "resource": null, "plant:type": null, "construction:power": null }, "geometry": { "type": "Polygon", "coordinates": [ [ [ 84.9888509, 20.8949458 ], [ 84.9889844, 20.8900354 ], [ 84.9889861, 20.8883913 ], [ 84.9904062, 20.8884545 ], [ 84.995816, 20.8886598 ], [ 84.9956807, 20.8958303 ], [ 84.9888847, 20.8959408 ], [ 84.9888509, 20.8949458 ] ] ] } },
{ "type": "Feature", "properties": { "element": "way", "id": 1021846869, "landuse": "industrial", "name": null, "operator": null, "plant:method": null, "plant:output:electricity": null, "plant:source": null, "power": null, "ref": null, "start_date": null, "addr:district": null, "industrial": "mine", "name:en": null, "wikidata": null, "wikipedia": null, "source": null, "operator:wikidata": null, "description": null, "resource": null, "plant:type": null, "construction:power": null }, "geometry": { "type": "Polygon", "coordinates": [ [ [ 85.1429915, 20.9428836 ], [ 85.1486349, 20.9408395 ], [ 85.1528406, 20.9404187 ], [ 85.1587629, 20.936631 ], [ 85.1595783, 20.9377733 ], [ 85.1611447, 20.9397974 ], [ 85.155437, 20.9422624 ], [ 85.1549864, 20.943585 ], [ 85.1541281, 20.9436852 ], [ 85.1526904, 20.9431642 ], [ 85.15136, 20.9437454 ], [ 85.1487636, 20.9442464 ], [ 85.1428628, 20.9444267 ], [ 85.1429915, 20.9428836 ] ] ] } },
{ "type": "Feature", "properties": { "element": "way", "id": 1021846871, "landuse": "industrial", "name": null, "operator": null, "plant:method": null, "plant:output:electricity": null, "plant:source": null, "power": null, "ref": null, "start_date": null, "addr:district": null, "industrial": "mine", "name:en": null, "wikidata": null, "wikipedia": null, "source": null, "operator:wikidata": null, "description": null, "resource": null, "plant:type": null, "construction:power": null }, "geometry": { "type": "Polygon", "coordinates": [ [ [ 85.1635265, 20.9297167 ], [ 85.1656508, 20.9296966 ], [ 85.1663268, 20.9295864 ], [ 85.1673782, 20.9291756 ], [ 85.1710904, 20.9270812 ], [ 85.1704574, 20.9254076 ], [ 85.170747, 20.9246761 ], [ 85.170865, 20.923694 ], [ 85.1708329, 20.9230626 ], [ 85.1663911, 20.923243 ], [ 85.1646852, 20.9245458 ], [ 85.1632583, 20.9261392 ], [ 85.162797, 20.9281434 ], [ 85.1635265, 20.9297167 ] ] ] } }
]
}
