{
"type": "FeatureCollection",
"name": "settlements",
"crs": { "type": "name", "properties": { "name": "urn:ogc:def:crs:OGC:1.3:CRS84" } },
"features": [
{ "type": "Feature", "properties": { "element": "node", "id": 245691299, "alt_name:ar": "انجول", "name": "Angul", "name:ar": "أنغول", "name:hi": "अनुगुल", "name:ja": "アーングル", "name:ml": "അനുഗുൽ", "name:ur": "انگول", "place": "town", "postal_code": "759122", "wikidata": "Q518237", "wikimedia_commons": "Category:Angul", "wikipedia": "en:Angul", "name:te": null, "population": null }, "geometry": { "type": "Point", "coordinates": [ 85.0973949, 20.8382426 ] } },
{ "type": "Feature", "properties": { "element": "node", "id": 1056746348, "alt_name:ar": null, "name": "Talcher", "name:ar": "تالشير", "name:hi": "तालचेर", "name:ja": null, "name:ml": "താൽചെർ", "name:ur": "تالچیر", "place": "town", "postal_code": "759100", "wikidata": "Q2352219", "wikimedia_commons": null, "wikipedia": "en:Talcher", "name:te": "తాల్చేర్", "population": null }, "geometry": { "type": "Point", "coordinates": [ 85.2111736, 20.9458183 ] } },
{ "type": "Feature", "properties": { "element": "node", "id": 1687018321, "alt_name:ar": null, "name": "Parjang", "name:ar": null, "name:hi": null, "name:ja": null, "name:ml": null, "name:ur": null, "place": "town", "postal_code": null, "wikidata": null, "wikimedia_commons": null, "wikipedia": null, "name:te": null, "population": null }, "geometry": { "type": "Point", "coordinates": [ 85.3170924, 20.9224679 ] } },
{ "type": "Feature", "properties": { "element": "node", "id": 1687018325, "alt_name:ar": null, "name": "Biswanathpur", "name:ar": null, "name:hi": null, "name:ja": null, "name:ml": null, "name:ur": null, "place": "town", "postal_code": null, "wikidata": null, "wikimedia_commons": null, "wikipedia": null, "name:te": null, "population": null }, "geometry": { "type": "Point", "coordinates": [ 85.2101473, 20.8499754 ] } },
{ "type": "Feature", "properties": { "element": "node", "id": 1687018330, "alt_name:ar": null, "name": "Motanga", "name:ar": null, "name:hi": null, "name:ja": null, "name:ml": null, "name:ur": null, "place": "village", "postal_code": null, "wikidata": null, "wikimedia_commons": null, "wikipedia": null, "name:te": null, "population": null }, "geometry": { "type": "Point", "coordinates": [ 85.3229289, 20.8063348 ] } },
{ "type": "Feature", "properties": { "element": "node", "id": 2942467746, "alt_name:ar": null, "name": "Chhendipada", "name:ar": null, "name:hi": null, "name:ja": null, "name:ml": null, "name:ur": null, "place": "village", "postal_code": "759124", "wikidata": null, "wikimedia_commons": null, "wikipedia": null, "name:te": null, "population": null }, "geometry": { "type": "Point", "coordinates": [ 84.8718962, 21.0850167 ] } },
{ "type": "Feature", "properties": { "element": "node", "id": 7145690482, "alt_name:ar": null, "name": "N.T.P.C.", "name:ar": null, "name:hi": null, "name:ja": null, "name:ml": null, "name:ur": null, "place": "village", "postal_code": null, "wikidata": null, "wikimedia_commons": null, "wikipedia": null, "name:te": null, "population": null }, "geometry": { "type": "Point", "coordinates": [ 85.0865793, 21.0930289 ] } },
{ "type": "Feature", "properties": { "element": "node", "id": 7145690483, "alt_name:ar": null, "name": "Kaniha", "name:ar": null, "name:hi": null, "name:ja": null, "name:ml": null, "name:ur": null, "place": "village", "postal_code": null, "wikidata": null, "wikimedia_commons": null, "wikipedia": null, "name:te": null, "population": null }, "geometry": { "type": "Point", "coordinates": [ 85.0498438, 21.096272 ] } },
{ "type": "Feature", "properties": { "element": "node", "id": 7148359955, "alt_name:ar": null, "name": "Balimi", "name:ar": null, "name:hi": null, "name:ja": null, "name:ml": null, "name:ur": null, "place": "village", "postal_code": null, "wikidata": null, "wikimedia_commons": null, "wikipedia": null, "name:te": null, "population": null }, "geometry": { "type": "Point", "coordinates": [ 85.3131723, 20.7048592 ] } },
{ "type": "Feature", "properties": { "element": "node", "id": 7148359956, "alt_name:ar": null, "name": "Motunga", "name:ar": null, "name:hi": null, "name:ja": null, "name:ml": null, "name:ur": null, "place": "village", "postal_code": null, "wikidata": null, "wikimedia_commons": null, "wikipedia": null, "name:te": null, "population": null }, "geometry": { "type": "Point", "coordinates": [ 85.3058338, 20.8035 ] } },
{ "type": "Feature", "properties": { "element": "node", "id": 7148359959, "alt_name:ar": null, "name": "Bantala", "name:ar": null, "name:hi": null, "name:ja": null, "name:ml": null, "name:ur": null, "place": "village", "postal_code": null, "wikidata": null, "wikimedia_commons": null, "wikipedia": null, "name:te": null, "population": null }, "geometry": { "type": "Point", "coordinates": [ 85.0671815, 20.7406631 ] } },
{ "type": "Feature", "properties": { "element": "node", "id": 7148359960, "alt_name:ar": null, "name": "Industrial", "name:ar": null, "name:hi": null, "name:ja": null, "name:ml": null, "name:ur": null, "place": "village", "postal_code": null, "wikidata": null, "wikimedia_commons": null, "wikipedia": null, "name:te": null, "population": null }, "geometry": { "type": "Point", "coordinates": [ 85.031358, 20.8730777 ] } },
{ "type": "Feature", "properties": { "element": "node", "id": 7148359961, "alt_name:ar": null, "name": "Jarapada", "name:ar": null, "name:hi": null, "name:ja": null, "name:ml": null, "name:ur": null, "place": "village", "postal_code": null, "wikidata": null, "wikimedia_commons": null, "wikipedia": null, "name:te": null, "population": null }, "geometry": { "type": "Point", "coordinates": [ 84.8822915, 20.8827512 ] } },
{ "type": "Feature", "properties": { "element": "node", "id": 7150716693, "alt_name:ar": null, "name": "Samal Barrage", "name:ar": null, "name:hi": null, "name:ja": null, "name:ml": null, "name:ur": null, "place": "village", "postal_code": null, "wikidata": null, "wikimedia_commons": null, "wikipedia": null, "name:te": null, "population": null }, "geometry": { "type": "Point", "coordinates": [ 85.1386142, 21.0735682 ] } },
{ "type": "Feature", "properties": { "element": "node", "id": 8131791319, "alt_name:ar": null, "name": "Roda", "name:ar": null, "name:hi": null, "name:ja": null, "name:ml": null, "name:ur": null, "place": "village", "postal_code": null, "wikidata": null, "wikimedia_commons": null, "wikipedia": null, "name:te": null, "population": null }, "geometry": { "type": "Point", "coordinates": [ 85.3389924, 20.8204849 ] } },
{ "type": "Feature", "properties": { "element": "node", "id": 8131791320, "alt_name:ar": null, "name": "Patarapada", "name:ar": null, "name:hi": null, "name:ja": null, "name:ml": null, "name:ur": null, "place": "village", "postal_code": null, "wikidata": null, "wikimedia_commons": null, "wikipedia": null, "name:te": null, "population": null }, "geometry": { "type": "Point", "coordinates": [ 85.3320293, 20.8514259 ] } },
{ "type": "Feature", "properties": { "element": "node", "id": 8131791321, "alt_name:ar": null, "name": "Katabahal", "name:ar": null, "name:hi": null, "name:ja": null, "name:ml": null, "name:ur": null, "place": "village", "postal_code": null, "wikidata": null, "wikimedia_commons": null, "wikipedia": null, "name:te": null, "population": null }, "geometry": { "type": "Point", "coordinates": [ 85.3385973, 20.8593513 ] } },
{ "type": "Feature", "properties": { "element": "node", "id": 12698915747, "alt_name:ar": null, "name": "Tippo", "name:ar": null, "name:hi": null, "name:ja": null, "name:ml": null, "name:ur": null, "place": "village", "postal_code": null, "wikidata": null, "wikimedia_commons": null, "wikipedia": null, "name:te": null, "population": null }, "geometry": { "type": "Point", "coordinates": [ 85.1320476, 21.06638 ] } },
{ "type": "Feature", "properties": { "element": "node", "id": 13606801317, "alt_name:ar": null, "name": "Saradhapur", "name:ar": null, "name:hi": null, "name:ja": null, "name:ml": null, "name:ur": null, "place": "village", "postal_code": null, "wikidata": null, "wikimedia_commons": null, "wikipedia": null, "name:te": null, "population": null }, "geometry": { "type": "Point", "coordinates": [ 85.0819219, 20.7988941 ] } },
{ "type": "Feature", "properties": { "element": "way", "id": 684933403, "alt_name:ar": null, "name": "Paratara", "name:ar": null, "name:hi": null, "name:ja": null, "name:ml": null, "name:ur": null, "place": "village", "postal_code": null, "wikidata": null, "wikimedia_commons": null, "wikipedia": null, "name:te": null, "population": "2500" }, "geometry": { "type": "Polygon", "coordinates": [ [ [ 85.0330611, 20.8411221 ], [ 85.0346275, 20.8424456 ], [ 85.0348635, 20.8428668 ], [ 85.0346275, 20.8434483 ], [ 85.0348206, 20.8438694 ], [ 85.0357648, 20.8437291 ], [ 85.0368162, 20.8437491 ], [ 85.037417, 20.8442103 ], [ 85.0373955, 20.8447919 ], [ 85.0372668, 20.8452932 ], [ 85.036902, 20.8456542 ], [ 85.0366016, 20.8461555 ], [ 85.0368376, 20.8468573 ], [ 85.0375243, 20.8473587 ], [ 85.0384255, 20.847479 ], [ 85.0395199, 20.847098 ], [ 85.0403996, 20.8467972 ], [ 85.0413867, 20.8470178 ], [ 85.0419446, 20.8475592 ], [ 85.0422664, 20.8480405 ], [ 85.0425883, 20.8484415 ], [ 85.0434037, 20.8484415 ], [ 85.0444122, 20.8480806 ], [ 85.0456567, 20.8476595 ], [ 85.0468584, 20.8475793 ], [ 85.0477167, 20.8475993 ], [ 85.0481244, 20.8477798 ], [ 85.0484462, 20.8482811 ], [ 85.0487681, 20.8487022 ], [ 85.0492831, 20.849003 ], [ 85.050077, 20.8487624 ], [ 85.0508924, 20.8483613 ], [ 85.0511714, 20.8481407 ], [ 85.0515576, 20.8474589 ], [ 85.0518366, 20.846737 ], [ 85.0523515, 20.8462357 ], [ 85.0530811, 20.8458246 ], [ 85.0541325, 20.8456842 ], [ 85.0551303, 20.8461054 ], [ 85.055656, 20.8462457 ], [ 85.0564607, 20.8460953 ], [ 85.0569113, 20.845955 ], [ 85.0569864, 20.8417738 ], [ 85.052137, 20.8392771 ], [ 85.04806, 20.8368707 ], [ 85.041494, 20.8351059 ], [ 85.0373955, 20.8334413 ], [ 85.0364514, 20.8320776 ], [ 85.0352498, 20.830774 ], [ 85.0319882, 20.8317166 ], [ 85.0347348, 20.8380739 ], [ 85.0346704, 20.8388159 ], [ 85.0346275, 20.8390164 ], [ 85.0330611, 20.8411221 ] ] ] } }
]
}
